NORAD_CAT_ID,OBJECT_NAME,OBJECT_TYPE,EPOCH,MEAN_MOTION,ECCENTRICITY,INCLINATION,RA_OF_ASC_NODE,ARG_OF_PERICENTER,MEAN_ANOMALY,BSTAR,MEAN_MOTION_DOT,MEAN_MOTION_DDOT,TLE_LINE0,TLE_LINE1,TLE_LINE2,SEMIMAJOR_AXIS,PERIOD,APOGEE,PERIGEE,DECAYED
52345.0,STARLINK-3852,PAYLOAD,2024-01-24 11:13:22,15.08855848,0.0001736,53.2196,79.3936,99.4569,260.662,-0.00017453,-3.066e-05,0.0,0 STARLINK-3852,1 52345U 22045Q   24024.46762524 -.00003066  00000-0 -17453-3 0  9990,2 52345  53.2196  79.3936 0001736  99.4569 260.6620 15.08855848 98734,6917.832,95.437,540.898,538.496,0.0
52345.0,STARLINK-3852,PAYLOAD,2024-01-25 09:28:47,15.08840475,0.0001934,53.2179,75.2358,69.4219,290.6981,6.3614e-05,7.24e-06,0.0,0 STARLINK-3852,1 52345U 22045Q   24025.39499055  .00000724  00000-0  63614-4 0  9996,2 52345  53.2179  75.2358 0001934  69.4219 290.6981 15.08840475 98875,6917.879,95.438,541.082,538.406,0.0
52345.0,STARLINK-3852,PAYLOAD,2024-01-26 09:19:33,15.08844845,0.0001934,53.2181,70.7714,68.327,291.7928,8.0245e-05,9.89e-06,0.0,0 STARLINK-3852,1 52345U 22045Q   24026.38858613  .00000989  00000-0  80245-4 0  9997,2 52345  53.2181  70.7714 0001934  68.3270 291.7928 15.08844845 99025,6917.866,95.437,541.068,538.393,0.0
52345.0,STARLINK-3852,PAYLOAD,2024-01-27 12:21:09,15.08818866,0.000143,53.217,65.7149,112.2992,247.8152,-0.00012958,-2.348e-05,0.0,0 STARLINK-3852,1 52345U 22045Q   24027.51469473 -.00002348  00000-0 -12958-3 0  9993,2 52345  53.2170  65.7149 0001430 112.2992 247.8152 15.08818866 99193,6917.945,95.439,540.799,538.821,0.0
52345.0,STARLINK-3852,PAYLOAD,2024-01-28 02:39:37,15.08833995,0.0001515,53.2181,63.0452,83.5166,276.5998,-1.495e-05,-5.26e-06,0.0,0 STARLINK-3852,1 52345U 22045Q   24028.11084567 -.00000526  00000-0 -14950-4 0  9998,2 52345  53.2181  63.0452 0001515  83.5166 276.5998 15.08833995 99287,6917.899,95.438,540.812,538.716,0.0
52345.0,STARLINK-3852,PAYLOAD,2024-01-28 10:36:31,15.08846872,0.0001742,53.2181,61.5489,101.1916,258.9272,9.5577e-05,1.234e-05,0.0,0 STARLINK-3852,1 52345U 22045Q   24028.44203381  .00001234  00000-0  95577-4 0  9990,2 52345  53.2181  61.5489 0001742 101.1916 258.9272 15.08846872 99335,6917.859,95.437,540.929,538.519,0.0
52345.0,STARLINK-3852,PAYLOAD,2024-01-28 12:11:54,15.08847388,0.0001733,53.218,61.2509,98.3562,261.7627,0.00010155,1.329e-05,0.0,0 STARLINK-3852,1 52345U 22045Q   24028.50827347  .00001329  00000-0  10155-3 0  9994,2 52345  53.2180  61.2509 0001733  98.3562 261.7627 15.08847388 99348,6917.858,95.437,540.922,538.524,0.0
52345.0,STARLINK-3852,PAYLOAD,2024-01-29 02:30:23,15.08837496,0.0001601,53.2178,58.575,97.9135,262.2039,0.0003233,4.861e-05,0.0,0 STARLINK-3852,1 52345U 22045Q   24029.10443493  .00004861  00000-0  32330-3 0  9990,2 52345  53.2178  58.5750 0001601  97.9135 262.2039 15.08837496 99439,6917.888,95.438,540.861,538.645,0.0
52345.0,STARLINK-3852,PAYLOAD,2024-01-29 08:51:55,15.0884268,0.0001672,53.2186,57.3861,91.9258,268.1925,0.00039214,5.959e-05,0.0,0 STARLINK-3852,1 52345U 22045Q   24029.36939211  .00005959  00000-0  39214-3 0  9993,2 52345  53.2186  57.3861 0001672  91.9258 268.1925 15.08842680 99470,6917.872,95.437,540.894,538.581,0.0
52345.0,STARLINK-3852,PAYLOAD,2024-01-30 00:45:47,15.08843988,0.0001575,53.2191,54.4145,99.3515,260.7656,8.6759e-05,1.093e-05,0.0,0 STARLINK-3852,1 52345U 22045Q   24030.03179898  .00001093  00000-0  86759-4 0  9998,2 52345  53.2191  54.4145 0001575  99.3515 260.7656 15.08843988 99571,6917.868,95.437,540.823,538.644,0.0
52345.0,STARLINK-3852,PAYLOAD,2024-01-30 07:07:19,15.08848633,0.0001732,53.2184,53.2229,109.902,250.2159,-2.5951e-05,-7.01e-06,0.0,0 STARLINK-3852,1 52345U 22045Q   24030.29675724 -.00000701  00000-0 -25951-4 0  9999,2 52345  53.2184  53.2229 0001732 109.9020 250.2159 15.08848633 99616,6917.854,95.437,540.917,538.521,0.0
52345.0,STARLINK-3852,PAYLOAD,2024-01-31 10:08:52,15.08852396,0.0001611,53.2185,48.1686,104.7169,255.4002,-2.8093e-05,-7.35e-06,0.0,0 STARLINK-3852,1 52345U 22045Q   24031.42283069 -.00000735  00000-0 -28093-4 0  9999,2 52345  53.2185  48.1686 0001611 104.7169 255.4002 15.08852396 99783,6917.842,95.437,540.822,538.593,0.0
52345.0,STARLINK-3852,PAYLOAD,2024-02-01 00:27:21,15.08838164,0.0001637,53.2174,45.4935,93.5154,266.6025,7.5394e-05,9.12e-06,0.0,0 STARLINK-3852,1 52345U 22045Q   24032.01899632  .00000912  00000-0  75394-4 0  9995,2 52345  53.2174  45.4935 0001637  93.5154 266.6025 15.08838164 99871,6917.886,95.438,540.883,538.619,0.0
52345.0,STARLINK-3852,PAYLOAD,2024-02-01 09:59:40,15.08833913,0.0001352,53.2178,43.708,94.2629,265.8518,1.7238e-05,-1.4e-07,0.0,0 STARLINK-3852,1 52345U 22045Q   24032.41644177 -.00000014  00000-0  17238-4 0  9998,2 52345  53.2178  43.7080 0001352  94.2629 265.8518 15.08833913 99938,6917.899,95.438,540.699,538.829,0.0
52345.0,STARLINK-3852,PAYLOAD,2024-02-02 06:39:40,15.08845535,0.0001311,53.2173,39.8449,90.6946,269.4196,7.8111e-05,9.56e-06,0.0,0 STARLINK-3852,1 52345U 22045Q   24033.27755455  .00000956  00000-0  78111-4 0  9996,2 52345  53.2173  39.8449 0001311  90.6946 269.4196 15.08845535100067,6917.863,95.437,540.635,538.822,0.0
52345.0,STARLINK-3852,PAYLOAD,2024-02-03 09:41:14,15.08838291,0.0001438,53.2181,34.7881,100.5489,259.5665,0.00010105,1.321e-05,0.0,0 STARLINK-3852,1 52345U 22045Q   24034.40363848  .00001321  00000-0  10105-3 0  9998,2 52345  53.2181  34.7881 0001438 100.5489 259.5665 15.08838291100234,6917.886,95.438,540.745,538.756,0.0
52345.0,STARLINK-3852,PAYLOAD,2024-02-04 09:32:00,15.08849721,0.0001544,53.2179,30.3259,108.9868,251.1292,6.7844e-05,7.92e-06,0.0,0 STARLINK-3852,1 52345U 22045Q   24035.39723081  .00000792  00000-0  67844-4 0  9990,2 52345  53.2179  30.3259 0001544 108.9868 251.1292 15.08849721100383,6917.851,95.437,540.784,538.648,0.0
52345.0,STARLINK-3852,PAYLOAD,2024-02-05 04:36:38,15.08843399,0.0001588,53.2188,26.7529,98.9193,261.1979,9.0471e-05,1.152e-05,0.0,0 STARLINK-3852,1 52345U 22045Q   24036.19211297  .00001152  00000-0  90471-4 0  9993,2 52345  53.2188  26.7529 0001588  98.9193 261.1979 15.08843399100501,6917.87,95.437,540.834,538.636,0.0
52345.0,STARLINK-3852,PAYLOAD,2024-02-06 04:27:26,15.08843447,0.000147,53.2192,22.3016,99.9561,260.1597,-5.7444e-05,-1.202e-05,0.0,0 STARLINK-3852,1 52345U 22045Q   24037.18572057 -.00001202  00000-0 -57444-4 0  9998,2 52345  53.2192  22.3016 0001470  99.9561 260.1597 15.08843447100654,6917.87,95.437,540.752,538.718,0.0
52345.0,STARLINK-3852,PAYLOAD,2024-02-07 07:28:59,15.08846053,0.0001551,53.2189,17.2462,103.7584,256.3581,9.1808e-05,1.174e-05,0.0,0 STARLINK-3852,1 52345U 22045Q   24038.31179604  .00001174  00000-0  91808-4 0  9993,2 52345  53.2189  17.2462 0001551 103.7584 256.3581 15.08846053100822,6917.862,95.437,540.8,538.654,0.0
52345.0,STARLINK-3852,PAYLOAD,2024-02-08 04:09:00,15.08836812,0.0001736,53.2194,13.3775,115.2055,244.9117,4.3958e-05,4.12e-06,0.0,0 STARLINK-3852,1 52345U 22045Q   24039.17292445  .00000412  00000-0  43958-4 0  9994,2 52345  53.2194  13.3775 0001736 115.2055 244.9117 15.08836812100952,6917.89,95.438,540.956,538.554,0.0
52345.0,STARLINK-3852,PAYLOAD,2024-02-08 07:19:46,15.08840936,0.0001543,53.2195,12.7788,83.5819,276.5348,0.00010325,1.356e-05,0.0,0 STARLINK-3852,1 52345U 22045Q   24039.30540270  .00001356  00000-0  10325-3 0  9990,2 52345  53.2195  12.7788 0001543  83.5819 276.5348 15.08840936100972,6917.878,95.437,540.81,538.675,0.0
52345.0,STARLINK-3852,PAYLOAD,2024-02-09 05:35:10,15.08847941,0.0001841,53.2199,8.6152,66.2936,293.825,7.5188e-05,9.09e-06,0.0,0 STARLINK-3852,1 52345U 22045Q   24040.23276123  .00000909  00000-0  75188-4 0  9999,2 52345  53.2199   8.6152 0001841  66.2936 293.8250 15.08847941101118,6917.856,95.437,540.995,538.448,0.0
52345.0,STARLINK-3852,PAYLOAD,2024-02-10 03:50:35,15.0884024,0.0001774,53.22,4.4515,74.1164,286.0024,4.081e-05,3.61e-06,0.0,0 STARLINK-3852,1 52345U 22045Q   24041.16012803  .00000361  00000-0  40810-4 0  9991,2 52345  53.2200   4.4515 0001774  74.1164 286.0024 15.08840240101257,6917.88,95.438,540.972,538.517,0.0
52345.0,STARLINK-3852,PAYLOAD,2024-02-10 07:01:21,15.08843332,0.0001728,53.2201,3.8547,76.757,283.3615,6.8873e-05,8.08e-06,0.0,0 STARLINK-3852,1 52345U 22045Q   24041.29260538  .00000808  00000-0  68873-4 0  9990,2 52345  53.2201   3.8547 0001728  76.7570 283.3615 15.08843332101277,6917.87,95.437,540.931,538.54,0.0
52345.0,STARLINK-3852,PAYLOAD,2024-02-11 03:41:21,15.0884775,0.0001701,53.2198,359.9875,107.3228,252.7951,-1.0805e-05,-4.6e-06,0.0,0 STARLINK-3852,1 52345U 22045Q   24042.15372384 -.00000460  00000-0 -10805-4 0  9997,2 52345  53.2198 359.9875 0001701 107.3228 252.7951 15.08847750101409,6917.857,95.437,540.898,538.545,0.0
52345.0,STARLINK-3852,PAYLOAD,2024-02-12 03:32:08,15.08850464,0.000173,53.2198,355.5339,111.9733,248.1443,7.6873e-05,9.36e-06,0.0,0 STARLINK-3852,1 52345U 22045Q   24043.14731981  .00000936  00000-0  76873-4 0  9992,2 52345  53.2198 355.5339 0001730 111.9733 248.1443 15.08850464101557,6917.848,95.437,540.91,538.517,0.0
52345.0,STARLINK-3852,PAYLOAD,2024-02-12 21:01:23,15.08839498,0.0001625,53.2194,352.2662,110.9459,249.1708,5.5995e-05,6.03e-06,0.0,0 STARLINK-3852,1 52345U 22045Q   24043.87596799  .00000603  00000-0  55995-4 0  9991,2 52345  53.2194 352.2662 0001625 110.9459 249.1708 15.08839498101664,6917.882,95.438,540.871,538.623,0.0
52345.0,STARLINK-3852,PAYLOAD,2024-02-13 03:22:55,15.08842757,0.0001511,53.2194,351.0799,111.0854,249.03,7.0051e-05,8.27e-06,0.0,0 STARLINK-3852,1 52345U 22045Q   24044.14092580  .00000827  00000-0  70051-4 0  9999,2 52345  53.2194 351.0799 0001511 111.0854 249.0300 15.08842757101701,6917.872,95.437,540.782,538.692,0.0
52345.0,STARLINK-3852,PAYLOAD,2024-02-13 12:55:15,15.08837007,0.0001425,53.2191,349.2941,101.691,258.4242,2.7378e-05,1.48e-06,0.0,0 STARLINK-3852,1 52345U 22045Q   24044.53837268  .00000148  00000-0  27378-4 0  9992,2 52345  53.2191 349.2941 0001425 101.6910 258.4242 15.08837007101765,6917.89,95.438,540.74,538.769,0.0
